{
  "type": "FeatureCollection",
  "features": [
    {
      "type": "Feature",
      "properties": {
        "norad_id": 67000,
        "name": "2025-292H",
        "group": "last-30-days",
        "lat": 20.60066411491656,
        "lon": 56.263523280135814,
        "alt_km": 553.6483071924658,
        "timestamp": "2025-12-12T14:39:16.774033+00:00",
        "meta_object_name": "2025-292H",
        "meta_object_id": "2025-292H",
        "meta_epoch": "2025-12-11T21:00:30.464640",
        "meta_mean_motion": 15.04864273,
        "meta_eccentricity": 0.0014339,
        "meta_inclination": 97.6576,
        "meta_ra_of_asc_node": 58.4335,
        "meta_arg_of_pericenter": 283.4517,
        "meta_mean_anomaly": 76.5111,
        "meta_ephemeris_type": 0,
        "meta_classification_type": "U",
        "meta_norad_cat_id": 67000,
        "meta_element_set_no": 999,
        "meta_rev_at_epoch": 13,
        "meta_bstar": 0.00023206,
        "meta_mean_motion_dot": 3.225e-05,
        "meta_mean_motion_ddot": 0,
        "tle_line1": "1 67000U 25292H   25345.87535260  .00003225  00000+0  23206-3 0  9995",
        "tle_line2": "2 67000  97.6576  58.4335 0014339 283.4517  76.5111 15.04864273   138"
      },
      "geometry": {
        "type": "Point",
        "coordinates": [
          56.263523280135814,
          20.60066411491656
        ]
      }
    },
    {
      "type": "Feature",
      "properties": {
        "norad_id": 67001,
        "name": "2025-292J",
        "group": "last-30-days",
        "lat": 15.585478388986905,
        "lon": 57.01123493996841,
        "alt_km": 557.3352835913502,
        "timestamp": "2025-12-12T14:39:16.774042+00:00",
        "meta_object_name": "2025-292J",
        "meta_object_id": "2025-292J",
        "meta_epoch": "2025-12-11T21:01:26.583168",
        "meta_mean_motion": 15.04279228,
        "meta_eccentricity": 0.00145483,
        "meta_inclination": 97.6573,
        "meta_ra_of_asc_node": 58.4343,
        "meta_arg_of_pericenter": 271.9613,
        "meta_mean_anomaly": 87.9946,
        "meta_ephemeris_type": 0,
        "meta_classification_type": "U",
        "meta_norad_cat_id": 67001,
        "meta_element_set_no": 999,
        "meta_rev_at_epoch": 26,
        "meta_bstar": 0.00057837428,
        "meta_mean_motion_dot": 8.011e-05,
        "meta_mean_motion_ddot": 0,
        "tle_line1": "1 67001U 25292J   25345.87600212  .00008011  00000+0  57837-3 0  9991",
        "tle_line2": "2 67001  97.6573  58.4343 0014548 271.9613  87.9946 15.04279228   262"
      },
      "geometry": {
        "type": "Point",
        "coordinates": [
          57.01123493996841,
          15.585478388986905
        ]
      }
    },
    {
      "type": "Feature",
      "properties": {
        "norad_id": 67002,
        "name": "ZK-1A R/B",
        "group": "last-30-days",
        "lat": 82.18960432160611,
        "lon": -38.90991081753881,
        "alt_km": 379.0596737688711,
        "timestamp": "2025-12-12T14:39:16.774051+00:00",
        "meta_object_name": "ZK-1A R/B",
        "meta_object_id": "2025-292K",
        "meta_epoch": "2025-12-12T06:33:04.234752",
        "meta_mean_motion": 15.54311312,
        "meta_eccentricity": 0.02213711,
        "meta_inclination": 97.7243,
        "meta_ra_of_asc_node": 59.0149,
        "meta_arg_of_pericenter": 7.7028,
        "meta_mean_anomaly": 352.7532,
        "meta_ephemeris_type": 0,
        "meta_classification_type": "U",
        "meta_norad_cat_id": 67002,
        "meta_element_set_no": 999,
        "meta_rev_at_epoch": 32,
        "meta_bstar": 0.00099680677,
        "meta_mean_motion_dot": 0.00200567,
        "meta_mean_motion_ddot": 1.2454685e-05,
        "tle_line1": "1 67002U 25292K   25346.27296568  .00200567  12455-4  99681-3 0  9997",
        "tle_line2": "2 67002  97.7243  59.0149 0221371   7.7028 352.7532 15.54311312   325"
      },
      "geometry": {
        "type": "Point",
        "coordinates": [
          -38.90991081753881,
          82.18960432160611
        ]
      }
    }
  ]
}